[{"OBJECT_NAME":"STARLINK-4478","OBJECT_ID":"2022-101C","EPOCH":"2026-03-09T10:02:51.290016","MEAN_MOTION":15.10614738,"ECCENTRICITY":0.00035117,"INCLINATION":53.2154,"RA_OF_ASC_NODE":75.1159,"ARG_OF_PERICENTER":60.8817,"MEAN_ANOMALY":299.2528,"EPHEMERIS_TYPE":0,"CLASSIFICATION_TYPE":"U","NORAD_CAT_ID":53529,"ELEMENT_SET_NO":999,"REV_AT_EPOCH":19612,"BSTAR":0.0015702237,"MEAN_MOTION_DOT":0.00026046,"MEAN_MOTION_DDOT":0},{"OBJECT_NAME":"FENGYUN 1C DEB","OBJECT_ID":"1999-025EMJ","EPOCH":"2026-03-09T03:39:09.279936","MEAN_MOTION":15.01174269,"ECCENTRICITY":0.00472088,"INCLINATION":98.7318,"RA_OF_ASC_NODE":38.98,"ARG_OF_PERICENTER":180.721,"MEAN_ANOMALY":242.109,"EPHEMERIS_TYPE":0,"CLASSIFICATION_TYPE":"U","NORAD_CAT_ID":37717,"ELEMENT_SET_NO":999,"REV_AT_EPOCH":90691,"BSTAR":0.0034859906,"MEAN_MOTION_DOT":0.00045969,"MEAN_MOTION_DDOT":0}]
